     2.100          NAVIGATION                              RINEX VERSION / TYPE
fic2rin                                 10/30/2016 00:11:49 PGM / RUN BY / DATE
                                                            END OF HEADER
16 16 10 29 12  0  0.0  .132434070110D-04  .170530256582D-11  .000000000000D+00
     .530000000000D+02 -.950000000000D+02  .372586948313D-08 -.198727124612D+01
    -.523962080479D-05  .873143831268D-02  .974722206593D-05  .515359278679D+04
     .561600000000D+06  .745058059692D-07 -.661204761489D+00 -.117346644402D-06
     .990606043335D+00  .204968750000D+03  .383746719403D+00 -.765281877062D-08
    -.192508018732D-09  .100000000000D+01  .192000000000D+04  .000000000000D+00
     .240000000000D+01  .000000000000D+00 -.102445483208D-07  .530000000000D+02
     .554406000000D+06  .400000000000D+01
18 16 10 29 12  0  0.0  .571296084672D-03  .341060513165D-11  .000000000000D+00
     .105000000000D+03 -.465937500000D+02  .536165190575D-08 -.139013857630D+01
    -.233389437199D-05  .172701602569D-01  .873394310474D-05  .515372471237D+04
     .561600000000D+06  .193715095520D-06  .236859476461D+01  .476837158203D-06
     .925180044388D+00  .191937500000D+03 -.185346713513D+01 -.842749389609D-08
    -.660384650529D-09  .100000000000D+01  .192000000000D+04  .000000000000D+00
     .340000000000D+01  .000000000000D+00 -.111758708954D-07  .105000000000D+03
     .554406000000D+06  .400000000000D+01
19 16 10 29 12  0  0.0 -.520946457982D-03  .682121026330D-12  .000000000000D+00
     .103000000000D+03  .238125000000D+02  .422089010273D-08  .177379351076D+00
     .137835741043D-05  .103544162121D-01  .106990337372D-04  .515363381004D+04
     .561600000000D+06 -.316649675369D-07  .406253775495D+00  .119209289551D-06
     .975371365138D+00  .184093750000D+03  .881551599431D+00 -.791997275580D-08
     .453233164695D-09  .100000000000D+01  .192000000000D+04  .000000000000D+00
     .240000000000D+01  .000000000000D+00 -.149011611938D-07  .103000000000D+03
     .554406000000D+06  .400000000000D+01
20 16 10 29 12  0  0.0  .443276483566D-03  .193267624127D-11  .000000000000D+00
     .630000000000D+02 -.598437500000D+02  .538058126566D-08  .246590195732D+01
    -.315159559250D-05  .474319583736D-02  .805966556072D-05  .515360009956D+04
     .561600000000D+06  .353902578354D-07  .231698884304D+01 -.521540641785D-07
     .926438519666D+00  .204468750000D+03  .147214546431D+01 -.841677916406D-08
    -.624311719375D-09  .100000000000D+01  .192000000000D+04  .000000000000D+00
     .240000000000D+01  .000000000000D+00 -.838190317154D-08  .630000000000D+02
     .554406000000D+06  .400000000000D+01
21 16 10 29 12  0  0.0 -.532810110599D-03  .795807864051D-12  .000000000000D+00
     .210000000000D+02  .163125000000D+02  .577381193101D-08 -.436386233558D+00
     .101327896118D-05  .233718573581D-01  .403635203838D-05  .515379292679D+04
     .561600000000D+06 -.238418579102D-06  .132673727061D+01  .121071934700D-06
     .937272021988D+00  .292625000000D+03 -.174676831996D+01 -.921288375359D-08
     .136077096729D-09  .100000000000D+01  .192000000000D+04  .000000000000D+00
     .240000000000D+01  .000000000000D+00 -.977888703346D-08  .210000000000D+02
     .554406000000D+06  .400000000000D+01
22 16 10 29 12  0  0.0  .205308664590D-03 -.105728759081D-10  .000000000000D+00
     .350000000000D+02 -.549687500000D+02  .538629578941D-08  .282301477554D+01
    -.291131436825D-05  .734403508250D-02  .883452594280D-05  .515369122124D+04
     .561600000000D+06  .100582838058D-06  .236891062179D+01 -.875443220139D-07
     .923139456532D+00  .184500000000D+03 -.185198232887D+01 -.832034657583D-08
    -.653955811313D-09  .100000000000D+01  .192000000000D+04  .000000000000D+00
     .240000000000D+01  .000000000000D+00 -.176951289177D-07  .350000000000D+02
     .554406000000D+06  .400000000000D+01
23 16 10 29 12  0  0.0 -.194969121367D-03 -.125055521494D-11  .000000000000D+00
     .750000000000D+02  .945937500000D+02  .462447834237D-08  .208693598691D+01
     .474788248539D-05  .111227083253D-01  .110995024443D-04  .515360095215D+04
     .561600000000D+06 -.217929482460D-06 -.283480222626D+01 -.633299350739D-07
     .945724298905D+00  .158781250000D+03 -.252442583416D+01 -.807247910830D-08
     .190007914592D-09  .100000000000D+01  .192000000000D+04  .000000000000D+00
     .240000000000D+01  .000000000000D+00 -.200234353542D-07  .750000000000D+02
     .554406000000D+06  .400000000000D+01
24 16 10 29 12  0  0.0 -.253054313362D-04 -.568434188608D-12  .000000000000D+00
     .970000000000D+02  .319687500000D+02  .511485591142D-08  .152162064277D+01
     .157579779625D-05  .487566285301D-02  .184029340744D-05  .515372052765D+04
     .561600000000D+06  .372529029846D-08 -.180987504808D+01  .875443220139D-07
     .947478897979D+00  .335687500000D+03  .393381009258D+00 -.868786188432D-08
     .110718897601D-09  .100000000000D+01  .192000000000D+04  .000000000000D+00
     .340000000000D+01  .000000000000D+00  .232830643654D-08  .970000000000D+02
     .554406000000D+06  .400000000000D+01
25 16 10 29 12  0  0.0 -.272336415946D-03 -.682121026330D-11  .000000000000D+00
     .580000000000D+02 -.949375000000D+02  .413088635371D-08 -.574634622376D+00
    -.486336648464D-05  .564851355739D-02  .813975930214D-05  .515368379402D+04
     .561600000000D+06  .279396772385D-07 -.732762610824D+00  .106170773506D-06
     .978152416294D+00  .234656250000D+03  .770230897929D+00 -.797747515100D-08
    -.290012080167D-09  .100000000000D+01  .192000000000D+04  .000000000000D+00
     .240000000000D+01  .000000000000D+00  .558793544769D-08  .580000000000D+02
     .554406000000D+06  .400000000000D+01
26 16 10 29 12  0  0.0 -.493800733238D-03 -.534328137292D-11  .000000000000D+00
     .430000000000D+02 -.955937500000D+02  .449447292712D-08 -.934495758962D+00
    -.513158738613D-05  .113689992577D-02  .829063355923D-05  .515360202217D+04
     .561600000000D+06  .931322574615D-08 -.744469843894D+00 -.745058059692D-08
     .960032372105D+00  .216781250000D+03 -.183425010719D+00 -.810533761985D-08
    -.301083969927D-09  .100000000000D+01  .192000000000D+04  .000000000000D+00
     .240000000000D+01  .000000000000D+00  .745058059692D-08  .430000000000D+02
     .554406000000D+06  .400000000000D+01
27 16 10 29 12  0  0.0  .158283859491D-03  .511590769747D-11  .000000000000D+00
     .620000000000D+02  .322187500000D+02  .412874340731D-08 -.289926712753D+01
     .163540244102D-05  .387529912405D-02  .115260481834D-04  .515365684509D+04
     .561600000000D+06 -.596046447754D-07  .307150729421D+00 -.316649675369D-07
     .973197852157D+00  .165281250000D+03  .323658765161D+00 -.770317801114D-08
     .506806824824D-09  .100000000000D+01  .192000000000D+04  .000000000000D+00
     .240000000000D+01  .000000000000D+00  .139698386192D-08  .620000000000D+02
     .554406000000D+06  .400000000000D+01
28 16 10 29 12  0  0.0  .562946312129D-03  .295585778076D-11  .000000000000D+00
     .550000000000D+02 -.100375000000D+03  .369301097159D-08 -.207148180370D+01
    -.494718551636D-05  .200261076679D-01  .881031155586D-05  .515363598061D+04
     .561600000000D+06  .314787030220D-06 -.656417161655D+00  .158324837685D-06
     .989355791120D+00  .216031250000D+03 -.160669517051D+01 -.742102340113D-08
    -.223937899341D-09  .100000000000D+01  .192000000000D+04  .000000000000D+00
     .340000000000D+01  .000000000000D+00 -.111758708954D-07  .550000000000D+02
     .554406000000D+06  .400000000000D+01
31 16 10 29 12  0  0.0  .239789020270D-03 -.216004991671D-11  .000000000000D+00
     .560000000000D+02  .906250000000D+01  .467948063344D-08  .411191242509D+00
     .512227416039D-06  .842027668841D-02  .199675559998D-05  .515357678604D+04
     .561600000000D+06  .111758708954D-06 -.174996119865D+01 -.122934579849D-06
     .969175352626D+00  .341531250000D+03 -.366550020828D+00 -.852571227299D-08
     .116433421348D-09  .100000000000D+01  .192000000000D+04  .000000000000D+00
     .240000000000D+01  .000000000000D+00 -.135041773319D-07  .560000000000D+02
     .554406000000D+06  .400000000000D+01
32 16 10 29 12  0  0.0 -.174866989255D-03 -.163709046319D-10  .000000000000D+00
     .890000000000D+02  .915625000000D+02  .419731769227D-08 -.238860507597D+01
     .489316880703D-05  .603539985605D-03  .101551413536D-04  .515366479492D+04
     .561600000000D+06 -.100582838058D-06 -.283642873955D+01  .335276126862D-07
     .959377591916D+00  .183843750000D+03 -.245445070566D+01 -.783746931920D-08
     .230366738556D-09  .100000000000D+01  .192000000000D+04  .000000000000D+00
     .240000000000D+01  .000000000000D+00  .465661287308D-09  .890000000000D+02
     .554406000000D+06  .400000000000D+01
18 16 10 29 11 59 44.0  .571295153350D-03  .341060513165D-11  .000000000000D+00
     .800000000000D+01 -.465937500000D+02  .536129474802D-08 -.139247239731D+01
    -.233389437199D-05  .172701618867D-01  .873394310474D-05  .515372472000D+04
     .561584000000D+06  .193715095520D-06  .236859488896D+01  .476837158203D-06
     .925180064869D+00  .191937500000D+03 -.185346704443D+01 -.842713673836D-08
    -.660384650529D-09  .100000000000D+01  .192000000000D+04  .000000000000D+00
     .240000000000D+01  .000000000000D+00 -.111758708954D-07  .800000000000D+01
     .557406000000D+06  .400000000000D+01
19 16 10 29 11 59 44.0 -.520945992321D-03  .682121026330D-12  .000000000000D+00
     .180000000000D+02  .238125000000D+02  .422089010273D-08  .175045690990D+00
     .137835741043D-05  .103544176091D-01  .106990337372D-04  .515363380241D+04
     .561584000000D+06 -.316649675369D-07  .406253904231D+00  .119209289551D-06
     .975371354898D+00  .184093750000D+03  .881551523359D+00 -.791997275580D-08
     .453233164695D-09  .100000000000D+01  .192000000000D+04  .000000000000D+00
     .240000000000D+01  .000000000000D+00 -.149011611938D-07  .180000000000D+02
     .558546000000D+06  .400000000000D+01
